CCSDS_OMM_VERS = 2.0
CREATION_DATE  = 
ORIGINATOR     = 

OBJECT_NAME    = SL-4 R/B
OBJECT_ID      = 2014-021B
CENTER_NAME    = EARTH
REF_FRAME      = TEME
TIME_SYSTEM    = UTC
MEAN_ELEMENT_THEORY = SGP/SGP4

EPOCH          = 2026-03-05T05:07:40.513440
MEAN_MOTION    = 15.39008154
ECCENTRICITY   = .0097883
INCLINATION    = 51.6094
RA_OF_ASC_NODE = 359.1115
ARG_OF_PERICENTER = 86.6279
MEAN_ANOMALY   = 274.5896

EPHEMERIS_TYPE = 0
CLASSIFICATION_TYPE = U
NORAD_CAT_ID   = 39679
ELEMENT_SET_NO = 999
REV_AT_EPOCH   = 65558
BSTAR          = .43144E-3
MEAN_MOTION_DOT = .19612E-3
MEAN_MOTION_DDOT = 0

CCSDS_OMM_VERS = 2.0
CREATION_DATE  = 
ORIGINATOR     = 

OBJECT_NAME    = ALOS-2
OBJECT_ID      = 2014-029A
CENTER_NAME    = EARTH
REF_FRAME      = TEME
TIME_SYSTEM    = UTC
MEAN_ELEMENT_THEORY = SGP/SGP4

EPOCH          = 2026-03-05T17:29:06.212832
MEAN_MOTION    = 14.79485900
ECCENTRICITY   = .0001458
INCLINATION    = 97.9201
RA_OF_ASC_NODE = 163.3833
ARG_OF_PERICENTER = 97.3481
MEAN_ANOMALY   = 262.7897

EPHEMERIS_TYPE = 0
CLASSIFICATION_TYPE = U
NORAD_CAT_ID   = 39766
ELEMENT_SET_NO = 999
REV_AT_EPOCH   = 63628
BSTAR          = .36545E-3
MEAN_MOTION_DOT = .268E-4
MEAN_MOTION_DDOT = 0

CCSDS_OMM_VERS = 2.0
CREATION_DATE  = 
ORIGINATOR     = 

OBJECT_NAME    = YAOGAN-29
OBJECT_ID      = 2015-069A
CENTER_NAME    = EARTH
REF_FRAME      = TEME
TIME_SYSTEM    = UTC
MEAN_ELEMENT_THEORY = SGP/SGP4

EPOCH          = 2026-03-05T17:54:26.941824
MEAN_MOTION    = 14.82988363
ECCENTRICITY   = .0002112
INCLINATION    = 98.0142
RA_OF_ASC_NODE = 93.1645
ARG_OF_PERICENTER = 42.1226
MEAN_ANOMALY   = 318.0149

EPHEMERIS_TYPE = 0
CLASSIFICATION_TYPE = U
NORAD_CAT_ID   = 41038
ELEMENT_SET_NO = 999
REV_AT_EPOCH   = 55529
BSTAR          = .27722E-4
MEAN_MOTION_DOT = .171E-5
MEAN_MOTION_DDOT = 0

CCSDS_OMM_VERS = 2.0
CREATION_DATE  = 
ORIGINATOR     = 

OBJECT_NAME    = ASTRO-H (HITOMI)
OBJECT_ID      = 2016-012A
CENTER_NAME    = EARTH
REF_FRAME      = TEME
TIME_SYSTEM    = UTC
MEAN_ELEMENT_THEORY = SGP/SGP4

EPOCH          = 2026-03-05T06:30:37.422144
MEAN_MOTION    = 15.09967820
ECCENTRICITY   = .0009998
INCLINATION    = 31.0008
RA_OF_ASC_NODE = 25.0587
ARG_OF_PERICENTER = 287.1051
MEAN_ANOMALY   = 72.8492

EPHEMERIS_TYPE = 0
CLASSIFICATION_TYPE = U
NORAD_CAT_ID   = 41337
ELEMENT_SET_NO = 999
REV_AT_EPOCH   = 55156
BSTAR          = .28588E-3
MEAN_MOTION_DOT = .4856E-4
MEAN_MOTION_DDOT = 0

CCSDS_OMM_VERS = 2.0
CREATION_DATE  = 
ORIGINATOR     = 

OBJECT_NAME    = HXMT (HUIYAN)
OBJECT_ID      = 2017-034A
CENTER_NAME    = EARTH
REF_FRAME      = TEME
TIME_SYSTEM    = UTC
MEAN_ELEMENT_THEORY = SGP/SGP4

EPOCH          = 2026-03-05T18:17:49.577568
MEAN_MOTION    = 15.17398791
ECCENTRICITY   = .0032536
INCLINATION    = 43.0152
RA_OF_ASC_NODE = 38.5055
ARG_OF_PERICENTER = 211.9772
MEAN_ANOMALY   = 147.9102

EPHEMERIS_TYPE = 0
CLASSIFICATION_TYPE = U
NORAD_CAT_ID   = 42758
ELEMENT_SET_NO = 999
REV_AT_EPOCH   = 48194
BSTAR          = .36409E-3
MEAN_MOTION_DOT = .7275E-4
MEAN_MOTION_DDOT = 0

CCSDS_OMM_VERS = 2.0
CREATION_DATE  = 
ORIGINATOR     = 

OBJECT_NAME    = SAOCOM 1A
OBJECT_ID      = 2018-076A
CENTER_NAME    = EARTH
REF_FRAME      = TEME
TIME_SYSTEM    = UTC
MEAN_ELEMENT_THEORY = SGP/SGP4

EPOCH          = 2026-03-05T17:02:12.627168
MEAN_MOTION    = 14.82164158
ECCENTRICITY   = .0001291
INCLINATION    = 97.8883
RA_OF_ASC_NODE = 252.9386
ARG_OF_PERICENTER = 82.4809
MEAN_ANOMALY   = 277.6550

EPHEMERIS_TYPE = 0
CLASSIFICATION_TYPE = U
NORAD_CAT_ID   = 43641
ELEMENT_SET_NO = 999
REV_AT_EPOCH   = 40077
BSTAR          = .55936E-4
MEAN_MOTION_DOT = .393E-5
MEAN_MOTION_DDOT = 0

CCSDS_OMM_VERS = 2.0
CREATION_DATE  = 
ORIGINATOR     = 

OBJECT_NAME    = H-2A R/B
OBJECT_ID      = 2018-084L
CENTER_NAME    = EARTH
REF_FRAME      = TEME
TIME_SYSTEM    = UTC
MEAN_ELEMENT_THEORY = SGP/SGP4

EPOCH          = 2026-03-05T13:51:59.103360
MEAN_MOTION    = 15.41138735
ECCENTRICITY   = .0025756
INCLINATION    = 98.8727
RA_OF_ASC_NODE = 281.0878
ARG_OF_PERICENTER = 39.2012
MEAN_ANOMALY   = 321.1089

EPHEMERIS_TYPE = 0
CLASSIFICATION_TYPE = U
NORAD_CAT_ID   = 43682
ELEMENT_SET_NO = 999
REV_AT_EPOCH   = 40514
BSTAR          = .58318E-3
MEAN_MOTION_DOT = .24381E-3
MEAN_MOTION_DDOT = 0

CCSDS_OMM_VERS = 2.0
CREATION_DATE  = 
ORIGINATOR     = 

OBJECT_NAME    = SAOCOM 1B
OBJECT_ID      = 2020-059A
CENTER_NAME    = EARTH
REF_FRAME      = TEME
TIME_SYSTEM    = UTC
MEAN_ELEMENT_THEORY = SGP/SGP4

EPOCH          = 2026-03-05T19:24:22.764384
MEAN_MOTION    = 14.82169251
ECCENTRICITY   = .0001464
INCLINATION    = 97.8882
RA_OF_ASC_NODE = 252.1340
ARG_OF_PERICENTER = 82.5993
MEAN_ANOMALY   = 277.5386

EPHEMERIS_TYPE = 0
CLASSIFICATION_TYPE = U
NORAD_CAT_ID   = 46265
ELEMENT_SET_NO = 999
REV_AT_EPOCH   = 29817
BSTAR          = .1344E-3
MEAN_MOTION_DOT = .1018E-4
MEAN_MOTION_DDOT = 0

CCSDS_OMM_VERS = 2.0
CREATION_DATE  = 
ORIGINATOR     = 

OBJECT_NAME    = CSS (TIANHE)
OBJECT_ID      = 2021-035A
CENTER_NAME    = EARTH
REF_FRAME      = TEME
TIME_SYSTEM    = UTC
MEAN_ELEMENT_THEORY = SGP/SGP4

EPOCH          = 2026-03-05T17:56:49.169184
MEAN_MOTION    = 15.60437237
ECCENTRICITY   = .0006846
INCLINATION    = 41.4657
RA_OF_ASC_NODE = 232.1415
ARG_OF_PERICENTER = 248.5767
MEAN_ANOMALY   = 111.4342

EPHEMERIS_TYPE = 0
CLASSIFICATION_TYPE = U
NORAD_CAT_ID   = 48274
ELEMENT_SET_NO = 999
REV_AT_EPOCH   = 27699
BSTAR          = .2088E-3
MEAN_MOTION_DOT = .17376E-3
MEAN_MOTION_DDOT = 0

CCSDS_OMM_VERS = 2.0
CREATION_DATE  = 
ORIGINATOR     = 

OBJECT_NAME    = COSMOS 2550
OBJECT_ID      = 2021-056A
CENTER_NAME    = EARTH
REF_FRAME      = TEME
TIME_SYSTEM    = UTC
MEAN_ELEMENT_THEORY = SGP/SGP4

EPOCH          = 2026-03-05T19:12:42.946848
MEAN_MOTION    = 15.33836971
ECCENTRICITY   = .0008459
INCLINATION    = 67.1424
RA_OF_ASC_NODE = 52.6960
ARG_OF_PERICENTER = 269.5886
MEAN_ANOMALY   = 90.4299

EPHEMERIS_TYPE = 0
CLASSIFICATION_TYPE = U
NORAD_CAT_ID   = 48865
ELEMENT_SET_NO = 999
REV_AT_EPOCH   = 26286
BSTAR          = -.11455E-6
MEAN_MOTION_DOT = -.196E-5
MEAN_MOTION_DDOT = 0

CCSDS_OMM_VERS = 2.0
CREATION_DATE  = 
ORIGINATOR     = 

OBJECT_NAME    = CZ-2C R/B
OBJECT_ID      = 2022-058K
CENTER_NAME    = EARTH
REF_FRAME      = TEME
TIME_SYSTEM    = UTC
MEAN_ELEMENT_THEORY = SGP/SGP4

EPOCH          = 2026-03-05T18:47:33.098208
MEAN_MOTION    = 15.53901570
ECCENTRICITY   = .0042185
INCLINATION    = 50.1901
RA_OF_ASC_NODE = 338.3810
ARG_OF_PERICENTER = 184.2205
MEAN_ANOMALY   = 175.8415

EPHEMERIS_TYPE = 0
CLASSIFICATION_TYPE = U
NORAD_CAT_ID   = 52794
ELEMENT_SET_NO = 999
REV_AT_EPOCH   = 20952
BSTAR          = .55687E-3
MEAN_MOTION_DOT = .37731E-3
MEAN_MOTION_DDOT = 0

CCSDS_OMM_VERS = 2.0
CREATION_DATE  = 
ORIGINATOR     = 

OBJECT_NAME    = CZ-2C R/B
OBJECT_ID      = 2022-132E
CENTER_NAME    = EARTH
REF_FRAME      = TEME
TIME_SYSTEM    = UTC
MEAN_ELEMENT_THEORY = SGP/SGP4

EPOCH          = 2026-03-05T12:38:47.951232
MEAN_MOTION    = 15.61437567
ECCENTRICITY   = .0020758
INCLINATION    = 97.2958
RA_OF_ASC_NODE = 67.7190
ARG_OF_PERICENTER = 104.7871
MEAN_ANOMALY   = 255.5688

EPHEMERIS_TYPE = 0
CLASSIFICATION_TYPE = U
NORAD_CAT_ID   = 54039
ELEMENT_SET_NO = 999
REV_AT_EPOCH   = 18972
BSTAR          = .55359E-3
MEAN_MOTION_DOT = .4782E-3
MEAN_MOTION_DDOT = 0

