SL-4 R/B                
1 39679U 14021B   26064.21366335  .00019612  00000+0  43144-3 0  9996
2 39679  51.6094 359.1115 0097883  86.6279 274.5896 15.39008154655585
ALOS-2                  
1 39766U 14029A   26064.72854413  .00002680  00000+0  36545-3 0  9990
2 39766  97.9201 163.3833 0001458  97.3481 262.7897 14.79485900636281
YAOGAN-29               
1 41038U 15069A   26064.74614516  .00000171  00000+0  27722-4 0  9991
2 41038  98.0142  93.1645 0002112  42.1226 318.0149 14.82988363555297
ASTRO-H (HITOMI)        
1 41337U 16012A   26064.27126646  .00004856  00000+0  28588-3 0  9996
2 41337  31.0008  25.0587 0009998 287.1051  72.8492 15.09967820551569
HXMT (HUIYAN)           
1 42758U 17034A   26064.76237937  .00007275  00000+0  36409-3 0  9998
2 42758  43.0152  38.5055 0032536 211.9772 147.9102 15.17398791481948
SAOCOM 1A               
1 43641U 18076A   26064.70986837  .00000393  00000+0  55936-4 0  9992
2 43641  97.8883 252.9386 0001291  82.4809 277.6550 14.82164158400772
H-2A R/B                
1 43682U 18084L   26064.57776740  .00024381  00000+0  58318-3 0  9990
2 43682  98.8727 281.0878 0025756  39.2012 321.1089 15.41138735405148
SAOCOM 1B               
1 46265U 20059A   26064.80859681  .00001018  00000+0  13440-3 0  9996
2 46265  97.8882 252.1340 0001464  82.5993 277.5386 14.82169251298179
CSS (TIANHE)            
1 48274U 21035A   26064.74779131  .00017376  00000+0  20880-3 0  9997
2 48274  41.4657 232.1415 0006846 248.5767 111.4342 15.60437237276992
COSMOS 2550             
1 48865U 21056A   26064.80049707 -.00000196  00000+0 -11455-6 0  9997
2 48865  67.1424  52.6960 0008459 269.5886  90.4299 15.33836971262868
CZ-2C R/B               
1 52794U 22058K   26064.78302197  .00037731  00000+0  55687-3 0  9993
2 52794  50.1901 338.3810 0042185 184.2205 175.8415 15.53901570209528
CZ-2C R/B               
1 54039U 22132E   26064.52694388  .00047820  00000+0  55359-3 0  9994
2 54039  97.2958  67.7190 0020758 104.7871 255.5688 15.61437567189724
